ONEWEB-0228             
1 48780U 21045P   23357.24526266  .00000087  00000+0  19711-3 0  9998
2 48780  87.9001  79.7291 0001669 110.7981 249.3328 13.15541893125085
